H1 CPF  1  DLR 2021 02 27 10  5582 technosat            
H2  1704205 6203    42829 2021 02 27 00 00 00 2021 03 06 00 00 00    60 1 1  0 0 0
H9
10 0 59278  14400.000000  0       -694049.949        958544.576      -6887380.631
10 0 59278  14460.000000  0       -571766.518       1393461.037      -6824448.473
10 0 59278  14520.000000  0       -443327.169       1821481.248      -6732905.546
10 0 59278  14580.000000  0       -309334.770       2240772.246      -6613134.569
10 0 59278  14640.000000  0       -170431.148       2649542.037      -6465634.758
10 0 59278  14700.000000  0        -27294.141       3046047.092      -6291019.985
10 0 59278  14760.000000  0        119365.603       3428599.705      -6090016.448
10 0 59278  14820.000000  0        268807.980       3795575.027      -5863459.859
10 0 59278  14880.000000  0        420266.958       4145417.875      -5612292.322
10 0 59278  14940.000000  0        572954.303       4476649.338      -5337558.798
10 0 59278  15000.000000  0        726063.466       4787873.117      -5040403.133
10 0 59278  15060.000000  0        878773.630       5077781.574      -4722063.657
10 0 59278  15120.000000  0       1030253.898       5345161.411      -4383868.341
10 0 59278  15180.000000  0       1179667.585       5588898.945      -4027229.562
10 0 59278  15240.000000  0       1326176.595       5807984.995      -3653638.514
10 0 59278  15300.000000  0       1468945.868       6001519.345      -3264659.255
10 0 59278  15360.000000  0       1607147.883       6168714.783      -2861922.387
10 0 59278  15420.000000  0       1739967.182       6308900.645      -2447118.397
10 0 59278  15480.000000  0       1866604.898       6421525.858      -2021990.668
10 0 59278  15540.000000  0       1986283.256       6506161.437      -1588328.209
10 0 59278  15600.000000  0       2098250.025       6562502.412      -1147958.104
10 0 59278  15660.000000  0       2201782.865       6590369.160       -702737.775
10 0 59278  15720.000000  0       2296193.561       6589708.164       -254547.060
10 0 59278  15780.000000  0       2380832.125       6560592.167        194719.831
10 0 59278  15840.000000  0       2455090.729       6503219.729        643162.440
10 0 59278  15900.000000  0       2518407.455       6417914.211       1088882.249
10 0 59278  15960.000000  0       2570269.834       6305122.153       1529990.895
10 0 59278  16020.000000  0       2610218.146       6165411.059       1964618.346
10 0 59278  16080.000000  0       2637848.470       5999466.628       2390921.002
10 0 59278  16140.000000  0       2652815.476       5808089.435       2807089.707
10 0 59278  16200.000000  0       2654834.948       5592191.036       3211357.628
10 0 59278  16260.000000  0       2643685.962       5352789.543       3602007.921
10 0 59278  16320.000000  0       2619212.740       5091004.790       3977381.176
10 0 59278  16380.000000  0       2581326.211       4808052.976       4335882.691
10 0 59278  16440.000000  0       2530005.122       4505240.686       4675989.445
10 0 59278  16500.000000  0       2465296.764       4183958.550       4996256.467
10 0 59278  16560.000000  0       2387317.457       3845674.736       5295322.888
10 0 59278  16620.000000  0       2296252.697       3491928.099       5571917.679
10 0 59278  16680.000000  0       2192356.978       3124321.063       5824864.990
10 0 59278  16740.000000  0       2075953.240       2744512.265       6053089.143
10 0 59278  16800.000000  0       1947431.931       2354208.928       6255619.195
10 0 59278  16860.000000  0       1807249.730       1955159.018       6431593.012
10 0 59278  16920.000000  0       1655927.936       1549143.286       6580260.826
10 0 59278  16980.000000  0       1494050.520       1137967.225       6700988.322
10 0 59278  17040.000000  0       1322261.867        723453.000       6793259.211
10 0 59278  17100.000000  0       1141264.230        307431.425       6856677.381
10 0 59278  17160.000000  0        951814.879       -108266.109       6890968.684
10 0 59278  17220.000000  0        754722.919       -521815.805       6895982.236
10 0 59278  17280.000000  0        550845.829       -931409.577       6871691.074
10 0 59278  17340.000000  0        341085.719      -1335262.989       6818192.369
10 0 59278  17400.000000  0        126385.313      -1731623.128       6735707.121
10 0 59278  17460.000000  0        -92276.299      -2118776.297       6624579.361
10 0 59278  17520.000000  0       -313888.164      -2495055.586       6485274.835
10 0 59278  17580.000000  0       -537412.109      -2858848.190       6318379.098
10 0 59278  17640.000000  0       -761787.557      -3208602.392       6124595.143
10 0 59278  17700.000000  0       -985936.493      -3542834.302       5904740.631
10 0 59278  17760.000000  0      -1208768.610      -3860134.333       5659744.678
10 0 59278  17820.000000  0      -1429186.645      -4159173.380       5390644.189
10 0 59278  17880.000000  0      -1646091.846      -4438708.696       5098579.672
10 0 59278  17940.000000  0      -1858389.515      -4697589.390       4784790.543
10 0 59278  18000.000000  0      -2064994.603      -4934761.523       4450609.964
10 0 59278  18060.000000  0      -2264837.348      -5149272.763       4097459.188
10 0 59278  18120.000000  0      -2456868.856      -5340276.497       3726841.405
10 0 59278  18180.000000  0      -2640066.625      -5507035.406       3340335.237
10 0 59278  18240.000000  0      -2813439.975      -5648924.504       2939587.894
10 0 59278  18300.000000  0      -2976035.388      -5765433.672       2526308.009
10 0 59278  18360.000000  0      -3126941.686      -5856169.629       2102258.145
10 0 59278  18420.000000  0      -3265295.052      -5920857.340       1669247.041
10 0 59278  18480.000000  0      -3390283.844      -5959340.832       1229121.606
10 0 59278  18540.000000  0      -3501153.152      -5971583.392        783758.728
10 0 59278  18600.000000  0      -3597209.094      -5957667.195        335056.964
10 0 59278  18660.000000  0      -3677822.832      -5917792.354       -115071.897
10 0 59278  18720.000000  0      -3742434.248      -5852275.353       -564711.348
10 0 59278  18780.000000  0      -3790555.275      -5761546.898      -1011948.668
10 0 59278  18840.000000  0      -3821772.868      -5646149.187      -1454883.392
10 0 59278  18900.000000  0      -3835751.575      -5506732.636      -1891635.664
10 0 59278  18960.000000  0      -3832235.731      -5344052.092      -2320354.460
10 0 59278  19020.000000  0      -3811051.223      -5158962.540      -2739225.631
10 0 59278  19080.000000  0      -3772106.824      -4952414.355      -3146479.696
10 0 59278  19140.000000  0      -3715395.108      -4725448.147      -3540399.358
10 0 59278  19200.000000  0      -3640992.950      -4479189.229      -3919326.713
10 0 59278  19260.000000  0      -3549061.618      -4214841.774      -4281670.111
10 0 59278  19320.000000  0      -3439846.470      -3933682.663      -4625910.700
10 0 59278  19380.000000  0      -3313676.225      -3637055.061      -4950608.588
10 0 59278  19440.000000  0      -3170961.863      -3326361.758      -5254408.573
10 0 59278  19500.000000  0      -3012195.139      -3003058.341      -5536045.476
10 0 59278  19560.000000  0      -2837946.731      -2668646.226      -5794349.029
10 0 59278  19620.000000  0      -2648864.042      -2324665.610      -6028248.373
10 0 59278  19680.000000  0      -2445668.629      -1972688.298      -6236776.137
10 0 59278  19740.000000  0      -2229153.275      -1614310.476      -6419072.004
10 0 59278  19800.000000  0      -2000178.776      -1251145.503      -6574385.817
10 0 59278  19860.000000  0      -1759670.439       -884816.727      -6702080.225
10 0 59278  19920.000000  0      -1508614.316       -516950.350      -6801632.862
10 0 59278  19980.000000  0      -1248053.216       -149168.416      -6872638.105
10 0 59278  20040.000000  0       -979082.438        216918.099      -6914808.473
10 0 59278  20100.000000  0       -702845.233        579716.102      -6927975.607
10 0 59278  20160.000000  0       -420528.045        937657.130      -6912090.773
10 0 59278  20220.000000  0       -133355.581       1289203.874      -6867224.862
10 0 59278  20280.000000  0        157414.259       1632856.466      -6793568.104
10 0 59278  20340.000000  0        450495.717       1967158.720      -6691429.442
10 0 59278  20400.000000  0        744580.774       2290704.177      -6561235.341
10 0 59278  20460.000000  0       1038344.844       2602141.834      -6403528.115
10 0 59278  20520.000000  0       1330452.523       2900181.694      -6218963.882
10 0 59278  20580.000000  0       1619563.486       3183600.050      -6008310.076
10 0 59278  20640.000000  0       1904338.494       3451244.426      -5772442.542
10 0 59278  20700.000000  0       2183445.464       3702038.238      -5512342.246
10 0 59278  20760.000000  0       2455565.565       3934985.168      -5229091.560
10 0 59278  20820.000000  0       2719399.370       4149173.235      -4923870.137
10 0 59278  20880.000000  0       2973672.999       4343778.509      -4597950.357
10 0 59278  20940.000000  0       3217144.239       4518068.459      -4252692.348
10 0 59278  21000.000000  0       3448608.580       4671404.865      -3889538.622
10 0 59278  21060.000000  0       3666905.191       4803246.366      -3510008.379
10 0 59278  21120.000000  0       3870922.835       4913150.576      -3115691.366
10 0 59278  21180.000000  0       4059605.539       5000775.694      -2708241.354
10 0 59278  21240.000000  0       4231958.044       5065881.658      -2289369.380
10 0 59278  21300.000000  0       4387051.075       5108330.897      -1860836.709
10 0 59278  21360.000000  0       4524026.381       5128088.644      -1424447.495
10 0 59278  21420.000000  0       4642101.523       5125222.715       -982041.135
10 0 59278  21480.000000  0       4740574.272       5099902.724       -535484.431
10 0 59278  21540.000000  0       4818826.622       5052398.837        -86663.623
99
